STARLINK-31099          
1 58781U 24011S   26068.13857074  .00000664  00000+0  34554-4 0  9994
2 58781  53.1619  16.3855 0000956 100.9975 259.1133 15.30196831120188
NUSAT-48 (HENRIETTA LE*)
1 60498U 24149AG  26068.80506098  .00012988  00000+0  45212-3 0  9999
2 60498  97.3923 150.8264 0002754 263.3026  96.7901 15.29812597 86946
